QIANFAN-1               
1 60379U 24140A   25308.47533250  .00000051  00000+0  61108-4 0  9998
2 60379  88.9729 303.2485 0016576 331.7754  28.2497 13.50978098 62189
QIANFAN-2               
1 60380U 24140B   25308.43018615  .00000050  00000+0  59484-4 0  9992
2 60380  88.9715 303.0978 0011111 303.7045  56.3046 13.50970170 62234
QIANFAN-3               
1 60381U 24140C   25308.43846847  .00000038  00000+0  40250-4 0  9996
2 60381  88.9708 303.2325 0012551 317.2322  42.7852 13.50969985 62148
QIANFAN-4               
1 60382U 24140D   25308.41364868  .00000032  00000+0  30788-4 0  9992
2 60382  88.9732 303.1231 0011398 306.6152  53.3950 13.50976743 62262
QIANFAN-5               
1 60383U 24140E   25308.46309750  .00000062  00000+0  77795-4 0  9999
2 60383  88.9707 303.2554 0014144 328.7152  31.3156 13.50973646 62130
QIANFAN-6               
1 60384U 24140F   25308.40963155  .00000036  00000+0  38063-4 0  9995
2 60384  88.9733 302.9969 0011662 313.2685  46.7492 13.50974575 62324
QIANFAN-7               
1 60385U 24140G   25308.47461412  .00000316  00000+0  12246-3 0  9997
2 60385  88.9746 298.2229 0015580 158.2658 201.9201 14.27589870 64932
QIANFAN-8               
1 60386U 24140H   25308.41783154  .00000033  00000+0  32283-4 0  9992
2 60386  88.9735 303.2330 0015158 314.1248  45.8655 13.50972580 62171
